[
    {
        "Altitude(m)": 706993.1927481134,
        "Argument of Periapsis(deg)": 0.004556048474650827,
        "Eccentricity": 0.0,
        "Inclination(deg)": 45.0,
        "Latitude(deg)": 43.744508528200996,
        "Longitude(deg)": -132.46084237749835,
        "Mean Anomaly(deg)": 102.79508665899232,
        "RAAN(deg)": 219.99569922341672,
        "Satellite Name": "Constellation 1 974",
        "Satellite Number": 974,
        "Semi-Major Axis(m)": 7083131.272910544,
        "Time(s)": 76
    },
    {
        "Altitude(m)": 706990.2417098435,
        "Argument of Periapsis(deg)": 0.004615996480896233,
        "Eccentricity": 0.0,
        "Inclination(deg)": 45.0,
        "Latitude(deg)": 43.73130629231582,
        "Longitude(deg)": -132.38310729691923,
        "Mean Anomaly(deg)": 102.85578779924218,
        "RAAN(deg)": 219.99564263425117,
        "Satellite Name": "Constellation 1 974",
        "Satellite Number": 974,
        "Semi-Major Axis(m)": 7083131.272910544,
        "Time(s)": 77
    },
    {
        "Altitude(m)": 706987.2779138602,
        "Argument of Periapsis(deg)": 0.004675944487141638,
        "Eccentricity": 0.0,
        "Inclination(deg)": 45.0,
        "Latitude(deg)": 43.718045471683624,
        "Longitude(deg)": -132.3054082193592,
        "Mean Anomaly(deg)": 102.91648893949214,
        "RAAN(deg)": 219.99558604508562,
        "Satellite Name": "Constellation 1 974",
        "Satellite Number": 974,
        "Semi-Major Axis(m)": 7083131.272910544,
        "Time(s)": 78
    },
    {
        "Altitude(m)": 706984.301377672,
        "Argument of Periapsis(deg)": 0.004735892493387044,
        "Eccentricity": 0.0,
        "Inclination(deg)": 45.0,
        "Latitude(deg)": 43.70472611873911,
        "Longitude(deg)": -132.22774527141124,
        "Mean Anomaly(deg)": 102.97719007974199,
        "RAAN(deg)": 219.99552945592,
        "Satellite Name": "Constellation 1 974",
        "Satellite Number": 974,
        "Semi-Major Axis(m)": 7083131.272910544,
        "Time(s)": 79
    },
    {
        "Altitude(m)": 706981.3121188747,
        "Argument of Periapsis(deg)": 0.004795840499632449,
        "Eccentricity": 0.0,
        "Inclination(deg)": 45.0,
        "Latitude(deg)": 43.69134828608955,
        "Longitude(deg)": -132.1501185791291,
        "Mean Anomaly(deg)": 103.03789121999192,
        "RAAN(deg)": 219.99547286675445,
        "Satellite Name": "Constellation 1 974",
        "Satellite Number": 974,
        "Semi-Major Axis(m)": 7083131.272910544,
        "Time(s)": 80
    },
    {
        "Altitude(m)": 706978.3101551329,
        "Argument of Periapsis(deg)": 0.004855788505877855,
        "Eccentricity": 0.0,
        "Inclination(deg)": 45.0,
        "Latitude(deg)": 43.67791202651376,
        "Longitude(deg)": -132.0725282680266,
        "Mean Anomaly(deg)": 103.09859236024178,
        "RAAN(deg)": 219.9954162775889,
        "Satellite Name": "Constellation 1 974",
        "Satellite Number": 974,
        "Semi-Major Axis(m)": 7083131.272910544,
        "Time(s)": 81
    },
    {
        "Altitude(m)": 706975.2955041941,
        "Argument of Periapsis(deg)": 0.00491573651212326,
        "Eccentricity": 0.0,
        "Inclination(deg)": 45.0,
        "Latitude(deg)": 43.66441739296138,
        "Longitude(deg)": -131.99497463117282,
        "Mean Anomaly(deg)": 103.15929350049173,
        "RAAN(deg)": 219.99535968842332,
        "Satellite Name": "Constellation 1 974",
        "Satellite Number": 974,
        "Semi-Major Axis(m)": 7083131.272910544,
        "Time(s)": 82
    },
    {
        "Altitude(m)": 706972.2681838755,
        "Argument of Periapsis(deg)": 0.004975684518368666,
        "Eccentricity": 0.0,
        "Inclination(deg)": 45.0,
        "Latitude(deg)": 43.65086443855118,
        "Longitude(deg)": -131.9174574568048,
        "Mean Anomaly(deg)": 103.21999464074162,
        "RAAN(deg)": 219.99530309925777,
        "Satellite Name": "Constellation 1 974",
        "Satellite Number": 974,
        "Semi-Major Axis(m)": 7083131.272910544,
        "Time(s)": 83
    },
    {
        "Altitude(m)": 706969.2282120781,
        "Argument of Periapsis(deg)": 0.005035632524614072,
        "Eccentricity": 0.0,
        "Inclination(deg)": 45.0,
        "Latitude(deg)": 43.6372532165715,
        "Longitude(deg)": -131.83997703690713,
        "Mean Anomaly(deg)": 103.28069578099146,
        "RAAN(deg)": 219.99524651009216,
        "Satellite Name": "Constellation 1 974",
        "Satellite Number": 974,
        "Semi-Major Axis(m)": 7083131.272910544,
        "Time(s)": 84
    },
    {
        "Altitude(m)": 706966.1756067693,
        "Argument of Periapsis(deg)": 0.0050955805308594785,
        "Eccentricity": 0.0,
        "Inclination(deg)": 45.0,
        "Latitude(deg)": 43.623583780478334,
        "Longitude(deg)": -131.76253349482357,
        "Mean Anomaly(deg)": 103.34139692124147,
        "RAAN(deg)": 219.9951899209266,
        "Satellite Name": "Constellation 1 974",
        "Satellite Number": 974,
        "Semi-Major Axis(m)": 7083131.272910544,
        "Time(s)": 85
    },
    {
        "Altitude(m)": 706963.1103860028,
        "Argument of Periapsis(deg)": 0.005155528537104883,
        "Eccentricity": 0.0,
        "Inclination(deg)": 45.0,
        "Latitude(deg)": 43.60985618389476,
        "Longitude(deg)": -131.68512695335374,
        "Mean Anomaly(deg)": 103.4020980614913,
        "RAAN(deg)": 219.99513333176102,
        "Satellite Name": "Constellation 1 974",
        "Satellite Number": 974,
        "Semi-Major Axis(m)": 7083131.272910544,
        "Time(s)": 86
    },
    {
        "Altitude(m)": 706960.0325679028,
        "Argument of Periapsis(deg)": 0.0052154765433502885,
        "Eccentricity": 0.0,
        "Inclination(deg)": 45.0,
        "Latitude(deg)": 43.596070480609995,
        "Longitude(deg)": -131.60775753475139,
        "Mean Anomaly(deg)": 103.4627992017412,
        "RAAN(deg)": 219.99507674259547,
        "Satellite Name": "Constellation 1 974",
        "Satellite Number": 974,
        "Semi-Major Axis(m)": 7083131.272910544,
        "Time(s)": 87
    },
    {
        "Altitude(m)": 706956.9421706735,
        "Argument of Periapsis(deg)": 0.005275424549595694,
        "Eccentricity": 0.0,
        "Inclination(deg)": 45.0,
        "Latitude(deg)": 43.58222672457847,
        "Longitude(deg)": -131.53042536072454,
        "Mean Anomaly(deg)": 103.5235003419911,
        "RAAN(deg)": 219.99502015342992,
        "Satellite Name": "Constellation 1 974",
        "Satellite Number": 974,
        "Semi-Major Axis(m)": 7083131.272910544,
        "Time(s)": 88
    },
    {
        "Altitude(m)": 706953.8392125852,
        "Argument of Periapsis(deg)": 0.0053353725558411,
        "Eccentricity": 0.0,
        "Inclination(deg)": 45.0,
        "Latitude(deg)": 43.5683249699192,
        "Longitude(deg)": -131.45313072053074,
        "Mean Anomaly(deg)": 103.58420148224103,
        "RAAN(deg)": 219.9949635642643,
        "Satellite Name": "Constellation 1 974",
        "Satellite Number": 974,
        "Semi-Major Axis(m)": 7083131.272910544,
        "Time(s)": 89
    },
    {
        "Altitude(m)": 706950.7237120008,
        "Argument of Periapsis(deg)": 0.005395320562086505,
        "Eccentricity": 0.0,
        "Inclination(deg)": 45.0,
        "Latitude(deg)": 43.55436527091391,
        "Longitude(deg)": -131.37587339858948,
        "Mean Anomaly(deg)": 103.64490262249089,
        "RAAN(deg)": 219.99490697509876,
        "Satellite Name": "Constellation 1 974",
        "Satellite Number": 974,
        "Semi-Major Axis(m)": 7083131.272910544,
        "Time(s)": 90
    },
    {
        "Altitude(m)": 706947.5956873433,
        "Argument of Periapsis(deg)": 0.00545526856833191,
        "Eccentricity": 0.0,
        "Inclination(deg)": 45.0,
        "Latitude(deg)": 43.540347682007535,
        "Longitude(deg)": -131.29865368306193,
        "Mean Anomaly(deg)": 103.70560376274078,
        "RAAN(deg)": 219.99485038593318,
        "Satellite Name": "Constellation 1 974",
        "Satellite Number": 974,
        "Semi-Major Axis(m)": 7083131.272910544,
        "Time(s)": 91
    },
    {
        "Altitude(m)": 706944.4551571193,
        "Argument of Periapsis(deg)": 0.005515216574577317,
        "Eccentricity": 0.0,
        "Inclination(deg)": 45.0,
        "Latitude(deg)": 43.52627225780637,
        "Longitude(deg)": -131.22147169346334,
        "Mean Anomaly(deg)": 103.76630490299075,
        "RAAN(deg)": 219.99479379676762,
        "Satellite Name": "Constellation 1 974",
        "Satellite Number": 974,
        "Semi-Major Axis(m)": 7083131.272910544,
        "Time(s)": 92
    },
    {
        "Altitude(m)": 706941.302139907,
        "Argument of Periapsis(deg)": 0.005575164580822722,
        "Eccentricity": 0.0,
        "Inclination(deg)": 45.0,
        "Latitude(deg)": 43.51213905307739,
        "Longitude(deg)": -131.1443275487593,
        "Mean Anomaly(deg)": 103.82700604324063,
        "RAAN(deg)": 219.99473720760201,
        "Satellite Name": "Constellation 1 974",
        "Satellite Number": 974,
        "Semi-Major Axis(m)": 7083131.272910544,
        "Time(s)": 93
    },
    {
        "Altitude(m)": 706938.1366543648,
        "Argument of Periapsis(deg)": 0.005635112587068129,
        "Eccentricity": 0.0,
        "Inclination(deg)": 45.0,
        "Latitude(deg)": 43.49794812274734,
        "Longitude(deg)": -131.06722136736414,
        "Mean Anomaly(deg)": 103.88770718349052,
        "RAAN(deg)": 219.99468061843646,
        "Satellite Name": "Constellation 1 974",
        "Satellite Number": 974,
        "Semi-Major Axis(m)": 7083131.272910544,
        "Time(s)": 94
    }
]